<?xml version="1.0" encoding="UTF-8"?>
<!-- Main road (route 5) along the north shore of Lake Biel, Vingelz - Twann. Road geometry from
     OpenStreetMap, (c) OpenStreetMap contributors, ODbL 1.0. -->
<gpx version="1.1" creator="Torqa test fixture" xmlns="http://www.topografix.com/GPX/1/1">
  <metadata><name>Bielersee</name></metadata>
  <trk><trkseg>
    <trkpt lat="47.1346321" lon="7.2295229"/>
    <trkpt lat="47.1344845" lon="7.2291688"/>
    <trkpt lat="47.1343636" lon="7.2288712"/>
    <trkpt lat="47.1343340" lon="7.2287972"/>
    <trkpt lat="47.1342958" lon="7.2286919"/>
    <trkpt lat="47.1342663" lon="7.2286113"/>
    <trkpt lat="47.1342042" lon="7.2284418"/>
    <trkpt lat="47.1341503" lon="7.2282810"/>
    <trkpt lat="47.1340935" lon="7.2280877"/>
    <trkpt lat="47.1340103" lon="7.2278608"/>
    <trkpt lat="47.1339696" lon="7.2277610"/>
    <trkpt lat="47.1339391" lon="7.2276837"/>
    <trkpt lat="47.1338825" lon="7.2275565"/>
    <trkpt lat="47.1338553" lon="7.2274925"/>
    <trkpt lat="47.1335438" lon="7.2267618"/>
    <trkpt lat="47.1334681" lon="7.2265678"/>
    <trkpt lat="47.1332924" lon="7.2261133"/>
    <trkpt lat="47.1331499" lon="7.2257526"/>
    <trkpt lat="47.1328294" lon="7.2248144"/>
    <trkpt lat="47.1327301" lon="7.2245507"/>
    <trkpt lat="47.1326253" lon="7.2242913"/>
    <trkpt lat="47.1323687" lon="7.2236840"/>
    <trkpt lat="47.1318597" lon="7.2223559"/>
    <trkpt lat="47.1317590" lon="7.2220941"/>
    <trkpt lat="47.1317414" lon="7.2220473"/>
    <trkpt lat="47.1315526" lon="7.2215597"/>
    <trkpt lat="47.1314697" lon="7.2213484"/>
    <trkpt lat="47.1313719" lon="7.2211289"/>
    <trkpt lat="47.1311505" lon="7.2206662"/>
    <trkpt lat="47.1309382" lon="7.2202170"/>
    <trkpt lat="47.1306510" lon="7.2195835"/>
    <trkpt lat="47.1305438" lon="7.2193681"/>
    <trkpt lat="47.1304050" lon="7.2191335"/>
    <trkpt lat="47.1301227" lon="7.2187396"/>
    <trkpt lat="47.1298659" lon="7.2184038"/>
    <trkpt lat="47.1297626" lon="7.2182719"/>
    <trkpt lat="47.1289279" lon="7.2172055"/>
    <trkpt lat="47.1279837" lon="7.2160540"/>
    <trkpt lat="47.1273598" lon="7.2150641"/>
    <trkpt lat="47.1272912" lon="7.2149524"/>
    <trkpt lat="47.1272580" lon="7.2148983"/>
    <trkpt lat="47.1267762" lon="7.2141134"/>
    <trkpt lat="47.1265601" lon="7.2137614"/>
    <trkpt lat="47.1262850" lon="7.2133656"/>
    <trkpt lat="47.1260136" lon="7.2130083"/>
    <trkpt lat="47.1247610" lon="7.2112821"/>
    <trkpt lat="47.1244663" lon="7.2108787"/>
    <trkpt lat="47.1240231" lon="7.2102599"/>
    <trkpt lat="47.1235925" lon="7.2097058"/>
    <trkpt lat="47.1230776" lon="7.2090308"/>
    <trkpt lat="47.1225870" lon="7.2084040"/>
    <trkpt lat="47.1224177" lon="7.2081860"/>
    <trkpt lat="47.1221256" lon="7.2078485"/>
    <trkpt lat="47.1219042" lon="7.2076183"/>
    <trkpt lat="47.1210186" lon="7.2067962"/>
    <trkpt lat="47.1206692" lon="7.2064443"/>
    <trkpt lat="47.1202965" lon="7.2060067"/>
    <trkpt lat="47.1200168" lon="7.2056359"/>
    <trkpt lat="47.1197867" lon="7.2052816"/>
    <trkpt lat="47.1196212" lon="7.2049931"/>
    <trkpt lat="47.1195048" lon="7.2047662"/>
    <trkpt lat="47.1192297" lon="7.2042240"/>
    <trkpt lat="47.1189243" lon="7.2035504"/>
    <trkpt lat="47.1188635" lon="7.2034225"/>
    <trkpt lat="47.1187826" lon="7.2032571"/>
    <trkpt lat="47.1187081" lon="7.2031152"/>
    <trkpt lat="47.1183266" lon="7.2023888"/>
    <trkpt lat="47.1180750" lon="7.2019463"/>
    <trkpt lat="47.1178223" lon="7.2015221"/>
    <trkpt lat="47.1175001" lon="7.2009374"/>
    <trkpt lat="47.1170409" lon="7.2001251"/>
    <trkpt lat="47.1167412" lon="7.1996431"/>
    <trkpt lat="47.1164178" lon="7.1991494"/>
    <trkpt lat="47.1160061" lon="7.1985564"/>
    <trkpt lat="47.1154202" lon="7.1976864"/>
    <trkpt lat="47.1152038" lon="7.1973857"/>
    <trkpt lat="47.1147931" lon="7.1967789"/>
    <trkpt lat="47.1144187" lon="7.1962270"/>
    <trkpt lat="47.1140002" lon="7.1955797"/>
    <trkpt lat="47.1138483" lon="7.1953499"/>
    <trkpt lat="47.1134231" lon="7.1947065"/>
    <trkpt lat="47.1132304" lon="7.1943986"/>
    <trkpt lat="47.1128113" lon="7.1936430"/>
    <trkpt lat="47.1124933" lon="7.1929475"/>
    <trkpt lat="47.1122202" lon="7.1922745"/>
    <trkpt lat="47.1118909" lon="7.1914629"/>
    <trkpt lat="47.1118779" lon="7.1914310"/>
    <trkpt lat="47.1112416" lon="7.1899545"/>
    <trkpt lat="47.1108233" lon="7.1889666"/>
    <trkpt lat="47.1107030" lon="7.1886787"/>
    <trkpt lat="47.1104290" lon="7.1879755"/>
    <trkpt lat="47.1100209" lon="7.1867912"/>
    <trkpt lat="47.1096893" lon="7.1858222"/>
    <trkpt lat="47.1095578" lon="7.1854509"/>
    <trkpt lat="47.1093591" lon="7.1849346"/>
    <trkpt lat="47.1091191" lon="7.1843718"/>
    <trkpt lat="47.1088747" lon="7.1838643"/>
    <trkpt lat="47.1086384" lon="7.1834115"/>
    <trkpt lat="47.1083427" lon="7.1829130"/>
    <trkpt lat="47.1080897" lon="7.1825264"/>
    <trkpt lat="47.1076274" lon="7.1818963"/>
    <trkpt lat="47.1071957" lon="7.1813755"/>
    <trkpt lat="47.1064701" lon="7.1805393"/>
    <trkpt lat="47.1058341" lon="7.1798068"/>
    <trkpt lat="47.1055943" lon="7.1795242"/>
    <trkpt lat="47.1048565" lon="7.1786684"/>
    <trkpt lat="47.1041650" lon="7.1779472"/>
    <trkpt lat="47.1039437" lon="7.1777303"/>
    <trkpt lat="47.1036316" lon="7.1774654"/>
    <trkpt lat="47.1029434" lon="7.1769026"/>
    <trkpt lat="47.1028339" lon="7.1767978"/>
    <trkpt lat="47.1027460" lon="7.1767138"/>
    <trkpt lat="47.1026592" lon="7.1766308"/>
    <trkpt lat="47.1025399" lon="7.1765263"/>
    <trkpt lat="47.1024664" lon="7.1764555"/>
    <trkpt lat="47.1022778" lon="7.1762778"/>
    <trkpt lat="47.1020944" lon="7.1761050"/>
    <trkpt lat="47.1018783" lon="7.1758758"/>
    <trkpt lat="47.1015971" lon="7.1755365"/>
    <trkpt lat="47.1012936" lon="7.1751545"/>
    <trkpt lat="47.1010357" lon="7.1747522"/>
    <trkpt lat="47.1008181" lon="7.1743670"/>
    <trkpt lat="47.1006092" lon="7.1739697"/>
    <trkpt lat="47.1004206" lon="7.1735873"/>
    <trkpt lat="47.1002226" lon="7.1731751"/>
    <trkpt lat="47.0999350" lon="7.1725736"/>
    <trkpt lat="47.0997637" lon="7.1722081"/>
    <trkpt lat="47.0988499" lon="7.1702858"/>
    <trkpt lat="47.0983434" lon="7.1692201"/>
    <trkpt lat="47.0979560" lon="7.1683956"/>
    <trkpt lat="47.0975351" lon="7.1674958"/>
    <trkpt lat="47.0971513" lon="7.1666434"/>
    <trkpt lat="47.0966697" lon="7.1655266"/>
    <trkpt lat="47.0964119" lon="7.1648813"/>
    <trkpt lat="47.0960306" lon="7.1638696"/>
    <trkpt lat="47.0957085" lon="7.1629345"/>
    <trkpt lat="47.0954580" lon="7.1621248"/>
    <trkpt lat="47.0952963" lon="7.1615526"/>
    <trkpt lat="47.0949776" lon="7.1603072"/>
    <trkpt lat="47.0948958" lon="7.1599571"/>
    <trkpt lat="47.0948431" lon="7.1597077"/>
    <trkpt lat="47.0946993" lon="7.1590101"/>
    <trkpt lat="47.0946357" lon="7.1587224"/>
  </trkseg></trk>
</gpx>
