<?xml version="1.0" encoding="UTF-8"?>
<!-- Gurtenstrasse, Koeniz/Bern: road geometry from OpenStreetMap, (c) OpenStreetMap contributors,
     ODbL 1.0 (https://www.openstreetmap.org/copyright). No elevations: the terrain model adds them. -->
<gpx version="1.1" creator="Torqa test fixture" xmlns="http://www.topografix.com/GPX/1/1">
  <metadata><name>Gurtenstrasse</name></metadata>
  <trk><trkseg>
    <trkpt lat="46.9099932" lon="7.4631113"/>
    <trkpt lat="46.9099667" lon="7.4630727"/>
    <trkpt lat="46.9099313" lon="7.4630042"/>
    <trkpt lat="46.9098954" lon="7.4628975"/>
    <trkpt lat="46.909864" lon="7.4626877"/>
    <trkpt lat="46.9098716" lon="7.4625013"/>
    <trkpt lat="46.909925" lon="7.4622937"/>
    <trkpt lat="46.9099698" lon="7.4620853"/>
    <trkpt lat="46.9100316" lon="7.4617363"/>
    <trkpt lat="46.9100544" lon="7.4616428"/>
    <trkpt lat="46.9100808" lon="7.4615354"/>
    <trkpt lat="46.9101814" lon="7.4612526"/>
    <trkpt lat="46.9102624" lon="7.4610509"/>
    <trkpt lat="46.9103371" lon="7.4607994"/>
    <trkpt lat="46.9103665" lon="7.4607004"/>
    <trkpt lat="46.9104076" lon="7.4605918"/>
    <trkpt lat="46.910459" lon="7.4604863"/>
    <trkpt lat="46.910547" lon="7.46036"/>
    <trkpt lat="46.9109259" lon="7.46"/>
    <trkpt lat="46.9110947" lon="7.459761"/>
    <trkpt lat="46.911285" lon="7.4595148"/>
    <trkpt lat="46.9113262" lon="7.4594659"/>
    <trkpt lat="46.9115164" lon="7.4592452"/>
    <trkpt lat="46.9115992" lon="7.45913"/>
    <trkpt lat="46.9117099" lon="7.4589621"/>
    <trkpt lat="46.9119175" lon="7.4586723"/>
    <trkpt lat="46.9120933" lon="7.4583372"/>
    <trkpt lat="46.91233" lon="7.4579459"/>
    <trkpt lat="46.9125538" lon="7.4575225"/>
    <trkpt lat="46.9127462" lon="7.4571872"/>
    <trkpt lat="46.9129052" lon="7.4569773"/>
    <trkpt lat="46.9130851" lon="7.4568018"/>
    <trkpt lat="46.913363" lon="7.4565169"/>
    <trkpt lat="46.9134995" lon="7.4564092"/>
    <trkpt lat="46.9137633" lon="7.456201"/>
    <trkpt lat="46.9138876" lon="7.456136"/>
    <trkpt lat="46.9140145" lon="7.4561008"/>
    <trkpt lat="46.9141723" lon="7.4560486"/>
    <trkpt lat="46.9143519" lon="7.4560193"/>
    <trkpt lat="46.9144293" lon="7.4560336"/>
    <trkpt lat="46.9145123" lon="7.4560634"/>
    <trkpt lat="46.9145523" lon="7.4560715"/>
    <trkpt lat="46.914593" lon="7.4560715"/>
    <trkpt lat="46.9146393" lon="7.4560354"/>
    <trkpt lat="46.9146822" lon="7.4559836"/>
    <trkpt lat="46.915032" lon="7.4555815"/>
    <trkpt lat="46.915102" lon="7.4554607"/>
    <trkpt lat="46.9151436" lon="7.455359"/>
    <trkpt lat="46.9151765" lon="7.4552487"/>
    <trkpt lat="46.9152118" lon="7.4551189"/>
    <trkpt lat="46.9152498" lon="7.4549982"/>
    <trkpt lat="46.915292" lon="7.4549093"/>
    <trkpt lat="46.9153367" lon="7.4548226"/>
    <trkpt lat="46.9154893" lon="7.4546036"/>
    <trkpt lat="46.9157603" lon="7.4542789"/>
    <trkpt lat="46.9158362" lon="7.4541877"/>
    <trkpt lat="46.9159094" lon="7.4540895"/>
    <trkpt lat="46.915951" lon="7.4540212"/>
    <trkpt lat="46.9159909" lon="7.453928"/>
    <trkpt lat="46.9160284" lon="7.4538243"/>
    <trkpt lat="46.9160656" lon="7.453685"/>
    <trkpt lat="46.9161017" lon="7.4534989"/>
    <trkpt lat="46.9161369" lon="7.4532379"/>
    <trkpt lat="46.9161669" lon="7.4529557"/>
    <trkpt lat="46.916199" lon="7.4527877"/>
    <trkpt lat="46.9162372" lon="7.4526007"/>
    <trkpt lat="46.9162611" lon="7.4524883"/>
    <trkpt lat="46.9162842" lon="7.4523636"/>
    <trkpt lat="46.9163026" lon="7.452204"/>
    <trkpt lat="46.9163147" lon="7.4519231"/>
    <trkpt lat="46.9163164" lon="7.4517245"/>
    <trkpt lat="46.9163096" lon="7.4515544"/>
    <trkpt lat="46.9162925" lon="7.451469"/>
    <trkpt lat="46.9162567" lon="7.4513875"/>
    <trkpt lat="46.9162103" lon="7.4513098"/>
    <trkpt lat="46.9160724" lon="7.4511306"/>
    <trkpt lat="46.9159961" lon="7.4510429"/>
    <trkpt lat="46.9159021" lon="7.4509563"/>
    <trkpt lat="46.9158106" lon="7.4508884"/>
    <trkpt lat="46.9157691" lon="7.4509964"/>
    <trkpt lat="46.9157276" lon="7.4510724"/>
    <trkpt lat="46.9155251" lon="7.451359"/>
    <trkpt lat="46.9154848" lon="7.4514042"/>
    <trkpt lat="46.9154355" lon="7.4514472"/>
    <trkpt lat="46.9153908" lon="7.4514793"/>
    <trkpt lat="46.9153446" lon="7.4515055"/>
    <trkpt lat="46.9153092" lon="7.4515165"/>
    <trkpt lat="46.9152618" lon="7.4515215"/>
    <trkpt lat="46.9152179" lon="7.4515131"/>
    <trkpt lat="46.9151708" lon="7.4514912"/>
    <trkpt lat="46.9151368" lon="7.4514579"/>
    <trkpt lat="46.9151083" lon="7.451408"/>
    <trkpt lat="46.9150864" lon="7.4513403"/>
    <trkpt lat="46.9150742" lon="7.4512702"/>
    <trkpt lat="46.915071" lon="7.4511941"/>
    <trkpt lat="46.9150792" lon="7.451086"/>
    <trkpt lat="46.9150969" lon="7.4509719"/>
    <trkpt lat="46.9151155" lon="7.4508858"/>
    <trkpt lat="46.9152447" lon="7.4500871"/>
    <trkpt lat="46.9153331" lon="7.4495561"/>
    <trkpt lat="46.9154066" lon="7.4490679"/>
    <trkpt lat="46.915451" lon="7.4487633"/>
    <trkpt lat="46.915482" lon="7.448499"/>
    <trkpt lat="46.9155942" lon="7.4470802"/>
    <trkpt lat="46.9156098" lon="7.4469331"/>
    <trkpt lat="46.9156263" lon="7.4468418"/>
    <trkpt lat="46.9156444" lon="7.4467857"/>
    <trkpt lat="46.9156672" lon="7.4467352"/>
    <trkpt lat="46.9156918" lon="7.446697"/>
    <trkpt lat="46.9157202" lon="7.4466672"/>
    <trkpt lat="46.9157549" lon="7.4466474"/>
    <trkpt lat="46.9158981" lon="7.4465941"/>
    <trkpt lat="46.9159484" lon="7.4465656"/>
    <trkpt lat="46.9159884" lon="7.4465333"/>
    <trkpt lat="46.9160273" lon="7.4464968"/>
    <trkpt lat="46.9160588" lon="7.4464592"/>
    <trkpt lat="46.916093" lon="7.4464063"/>
    <trkpt lat="46.9161193" lon="7.4463549"/>
    <trkpt lat="46.9161541" lon="7.4462644"/>
    <trkpt lat="46.9161902" lon="7.4461141"/>
    <trkpt lat="46.9162168" lon="7.4459754"/>
    <trkpt lat="46.9162405" lon="7.445898"/>
    <trkpt lat="46.9162641" lon="7.4458313"/>
    <trkpt lat="46.9162896" lon="7.4457786"/>
    <trkpt lat="46.9163463" lon="7.4456899"/>
    <trkpt lat="46.9167093" lon="7.4451926"/>
    <trkpt lat="46.9169108" lon="7.4448479"/>
    <trkpt lat="46.9171368" lon="7.4443546"/>
    <trkpt lat="46.9172683" lon="7.4440244"/>
    <trkpt lat="46.9173396" lon="7.4438843"/>
    <trkpt lat="46.9173973" lon="7.4437954"/>
    <trkpt lat="46.9175846" lon="7.4436402"/>
    <trkpt lat="46.917695" lon="7.4435082"/>
    <trkpt lat="46.917775" lon="7.4433737"/>
    <trkpt lat="46.9178437" lon="7.4432104"/>
    <trkpt lat="46.917895" lon="7.4430702"/>
    <trkpt lat="46.9180368" lon="7.4426829"/>
    <trkpt lat="46.9181476" lon="7.442548"/>
    <trkpt lat="46.9183143" lon="7.4424192"/>
    <trkpt lat="46.9184025" lon="7.4422883"/>
    <trkpt lat="46.918691" lon="7.4418095"/>
    <trkpt lat="46.9188242" lon="7.4415082"/>
    <trkpt lat="46.9189702" lon="7.4411398"/>
    <trkpt lat="46.9191268" lon="7.4406664"/>
    <trkpt lat="46.9193232" lon="7.4397923"/>
  </trkseg></trk>
</gpx>
